OBJECT_NAME,OBJECT_ID,EPOCH,MEAN_MOTION,ECCENTRICITY,INCLINATION,RA_OF_ASC_NODE,ARG_OF_PERICENTER,MEAN_ANOMALY,EPHEMERIS_TYPE,CLASSIFICATION_TYPE,NORAD_CAT_ID,ELEMENT_SET_NO,REV_AT_EPOCH,BSTAR,MEAN_MOTION_DOT,MEAN_MOTION_DDOT
STARLINK-37777,2026-122W,2026-06-10T06:00:02.999808,15.94836649,.00008494,97.2865,190.3018,80.7362,237.8963,0,U,69349,999,224,-.39463921E-2,-.1496704E-1,.65395793E-3
STARLINK-37779,2026-122X,2026-06-10T06:00:02.999808,15.95133505,.00008116,97.2866,190.3045,82.6543,242.3446,0,U,69350,999,224,-.30564564E-2,-.1180463E-1,.42278403E-3
STARLINK-37549,2026-122Y,2026-06-10T06:00:02.999808,15.95270989,.00008162,97.2867,190.3057,79.5584,247.1045,0,U,69351,999,224,-.39093458E-2,-.1517059E-1,.67358355E-3
STARLINK-37778,2026-122Z,2026-06-10T06:00:02.999808,15.95320082,.00008897,97.2865,190.3059,77.5489,250.2403,0,U,69352,999,224,-.3876469E-2,-.1508352E-1,.66677888E-3
STARLINK-37651,2026-123A,2026-06-10T06:00:02.999808,15.92351968,.00009149,53.1579,276.7267,43.8282,63.9218,0,U,69353,999,203,-.51260611E-2,-.1763703E-1,.86453429E-3
STARLINK-37652,2026-123B,2026-06-10T06:00:02.999808,15.92744120,.00007765,53.1577,276.7174,55.4620,56.8065,0,U,69354,999,203,-.5667981E-2,-.1987262E-1,.10831103E-2
STARLINK-37593,2026-123C,2026-06-10T06:00:02.999808,15.93029399,.00010929,53.1578,276.7109,34.4642,80.9154,0,U,69355,999,208,-.59992702E-2,-.2133215E-1,.12408008E-2
STARLINK-37597,2026-123D,2026-06-10T06:00:02.999808,15.93288930,.00007781,53.1576,276.7007,49.3714,70.9398,0,U,69356,999,208,-.54182708E-2,-.1955233E-1,.10566137E-2
STARLINK-37598,2026-123E,2026-06-10T06:00:02.999808,15.93730085,.00009918,53.1575,276.6904,46.0189,79.3264,0,U,69357,999,208,-.51507436E-2,-.1903206E-1,.10093842E-2
STARLINK-37602,2026-123F,2026-06-10T06:00:02.999808,15.93969340,.00010621,53.1575,276.6833,48.4467,80.3066,0,U,69358,999,208,-.55324114E-2,-.2068077E-1,.11819694E-2
STARLINK-37600,2026-123G,2026-06-10T06:00:02.999808,15.94549072,.00010493,53.1574,276.6693,43.4411,91.9958,0,U,69359,999,208,-.48900512E-2,-.1887538E-1,.10023957E-2
STARLINK-37599,2026-123H,2026-06-10T06:00:02.999808,15.94770000,.00011032,53.1574,276.6553,41.2731,100.8216,0,U,69360,999,203,-.4696684E-2,-.1835167E-1,.9535038E-3
STARLINK-37039,2026-123J,2026-06-10T06:00:02.999808,15.94859801,.00009146,53.1574,276.6491,53.9445,91.0924,0,U,69361,999,203,-.49909718E-2,-.1957825E-1,.10766028E-2
STARLINK-37040,2026-123K,2026-06-10T06:00:02.999808,15.95899428,.00007775,53.1573,276.6349,72.5774,79.1176,0,U,69362,999,203,-.12854604E-2,-.54088E-2,.10668095E-3
STARLINK-37582,2026-123L,2026-06-10T06:00:02.999808,15.95745429,.00011327,53.1572,276.6266,44.1164,111.8227,0,U,69363,999,203,-.45603157E-2,-.1877492E-1,.1004967E-2
STARLINK-37309,2026-123M,2026-06-10T06:00:02.999808,15.96457154,.00006856,53.1569,276.6168,64.1174,96.4873,0,U,69364,999,217,-.73477001E-3,-.32045E-2,.45888807E-4
STARLINK-37436,2026-123N,2026-06-10T06:00:02.999808,15.97063113,.00007081,53.1570,276.5988,59.9676,109.0900,0,U,69365,999,217,-.68686128E-3,-.309844E-2,.43909722E-4
STARLINK-37581,2026-123P,2026-06-10T06:00:02.999808,15.96768887,.00006331,53.1570,276.5893,73.1493,100.5872,0,U,69366,999,202,-.93219945E-3,-.412419E-2,.68245755E-4
STARLINK-37683,2026-123Q,2026-06-10T06:00:02.999808,15.97101548,.00010914,53.1570,276.5793,39.5732,138.8499,0,U,69367,999,203,-.98427566E-3,-.443219E-2,.77076672E-4
STARLINK-37687,2026-123R,2026-06-10T06:00:02.999808,15.98218085,.00006617,53.1569,276.5653,64.7770,120.3880,0,U,69368,999,203,-.59579117E-3,-.286888E-2,.39719503E-4
STARLINK-37631,2026-123S,2026-06-10T06:00:02.999808,15.98512008,.00006958,53.1568,276.5550,59.4160,130.8676,0,U,69369,999,208,-.57840225E-3,-.2832E-2,.39105919E-4
STARLINK-37673,2026-123T,2026-06-10T06:00:02.999808,15.98989816,.00008201,53.1566,276.5427,63.9284,132.2144,0,U,69370,999,208,-.54347141E-3,-.273503E-2,.37414456E-4
STARLINK-37645,2026-123U,2026-06-10T06:00:02.999808,15.99059575,.00007945,53.1567,276.5363,60.3002,138.8636,0,U,69371,999,208,-.5788242E-3,-.292184E-2,.41084502E-4
STARLINK-37688,2026-123V,2026-06-10T06:00:02.999808,16.01204958,.00004812,53.1566,276.4909,72.5140,148.2055,0,U,69372,999,208,-.81607437E-3,-.463524E-2,.86677361E-4
STARLINK-37685,2026-123W,2026-06-10T06:00:02.999808,16.01440209,.00004466,53.1565,276.4827,59.7419,165.0503,0,U,69373,999,208,-.70378253E-3,-.405814E-2,.69719157E-4
STARLINK-37632,2026-123X,2026-06-10T06:00:02.999808,16.01538521,.00003636,53.1565,276.4726,89.2368,140.3494,0,U,69374,999,203,-.29912077E-2,-.1707662E-1,.89769812E-3
STARLINK-37454,2026-123Y,2026-06-10T06:00:02.999808,16.02239243,.00002713,53.1565,276.4603,125.1988,110.1660,0,U,69375,999,217,-.28939449E-2,-.1721196E-1,.91830687E-3
STARLINK-37485,2026-123Z,2026-06-10T06:00:02.999808,16.02171305,.00002591,53.1565,276.4520,97.3760,141.9505,0,U,69376,999,217,-.27983184E-2,-.1658525E-1,.85654587E-3
STARLINK-37439,2026-123AA,2026-06-10T06:00:02.999808,16.02859379,.00007283,53.1563,276.4385,69.2151,176.6386,0,U,69377,999,203,-.42584677E-3,-.268345E-2,.37777918E-4
