STARLINK-37777          
1 69349U 26122W   26161.25003472 -.01496704  65396-3 -39464-2 0  9996
2 69349  97.2865 190.3018 0000849  80.7362 237.8963 15.94836649  2240
STARLINK-37779          
1 69350U 26122X   26161.25003472 -.01180463  42278-3 -30565-2 0  9997
2 69350  97.2866 190.3045 0000811  82.6543 242.3446 15.95133505  2243
STARLINK-37549          
1 69351U 26122Y   26161.25003472 -.01517059  67358-3 -39093-2 0  9994
2 69351  97.2867 190.3057 0000816  79.5584 247.1045 15.95270989  2249
STARLINK-37778          
1 69352U 26122Z   26161.25003472 -.01508352  66678-3 -38765-2 0  9990
2 69352  97.2865 190.3059 0000889  77.5489 250.2403 15.95320082  2245
STARLINK-37651          
1 69353U 26123A   26161.25003472 -.01763703  86453-3 -51261-2 0  9994
2 69353  53.1579 276.7267 0000914  43.8282  63.9218 15.92351968  2039
STARLINK-37652          
1 69354U 26123B   26161.25003472 -.01987262  10831-2 -56680-2 0  9999
2 69354  53.1577 276.7174 0000776  55.4620  56.8065 15.92744120  2033
STARLINK-37593          
1 69355U 26123C   26161.25003472 -.02133215  12408-2 -59993-2 0  9994
2 69355  53.1578 276.7109 0001092  34.4642  80.9154 15.93029399  2083
STARLINK-37597          
1 69356U 26123D   26161.25003472 -.01955233  10566-2 -54183-2 0  9995
2 69356  53.1576 276.7007 0000778  49.3714  70.9398 15.93288930  2081
STARLINK-37598          
1 69357U 26123E   26161.25003472 -.01903206  10094-2 -51507-2 0  9992
2 69357  53.1575 276.6904 0000991  46.0189  79.3264 15.93730085  2081
STARLINK-37602          
1 69358U 26123F   26161.25003472 -.02068077  11820-2 -55324-2 0  9991
2 69358  53.1575 276.6833 0001062  48.4467  80.3066 15.93969340  2088
STARLINK-37600          
1 69359U 26123G   26161.25003472 -.01887538  10024-2 -48901-2 0  9990
2 69359  53.1574 276.6693 0001049  43.4411  91.9958 15.94549072  2086
STARLINK-37599          
1 69360U 26123H   26161.25003472 -.01835167  95350-3 -46967-2 0  9999
2 69360  53.1574 276.6553 0001103  41.2731 100.8216 15.94770000  2034
STARLINK-37039          
1 69361U 26123J   26161.25003472 -.01957825  10766-2 -49910-2 0  9994
2 69361  53.1574 276.6491 0000914  53.9445  91.0924 15.94859801  2031
STARLINK-37040          
1 69362U 26123K   26161.25003472 -.00540880  10668-3 -12855-2 0  9993
2 69362  53.1573 276.6349 0000777  72.5774  79.1176 15.95899428  2038
STARLINK-37582          
1 69363U 26123L   26161.25003472 -.01877492  10050-2 -45603-2 0  9998
2 69363  53.1572 276.6266 0001132  44.1164 111.8227 15.95745429  2032
STARLINK-37309          
1 69364U 26123M   26161.25003472 -.00320450  45889-4 -73477-3 0  9996
2 69364  53.1569 276.6168 0000685  64.1174  96.4873 15.96457154  2171
STARLINK-37436          
1 69365U 26123N   26161.25003472 -.00309844  43910-4 -68686-3 0  9990
2 69365  53.1570 276.5988 0000708  59.9676 109.0900 15.97063113  2179
STARLINK-37581          
1 69366U 26123P   26161.25003472 -.00412419  68246-4 -93220-3 0  9995
2 69366  53.1570 276.5893 0000633  73.1493 100.5872 15.96768887  2024
STARLINK-37683          
1 69367U 26123Q   26161.25003472 -.00443219  77077-4 -98428-3 0  9995
2 69367  53.1570 276.5793 0001091  39.5732 138.8499 15.97101548  2031
STARLINK-37687          
1 69368U 26123R   26161.25003472 -.00286888  39720-4 -59579-3 0  9990
2 69368  53.1569 276.5653 0000661  64.7770 120.3880 15.98218085  2035
STARLINK-37631          
1 69369U 26123S   26161.25003472 -.00283200  39106-4 -57840-3 0  9993
2 69369  53.1568 276.5550 0000695  59.4160 130.8676 15.98512008  2088
STARLINK-37673          
1 69370U 26123T   26161.25003472 -.00273503  37414-4 -54347-3 0  9999
2 69370  53.1566 276.5427 0000820  63.9284 132.2144 15.98989816  2089
STARLINK-37645          
1 69371U 26123U   26161.25003472 -.00292184  41085-4 -57882-3 0  9992
2 69371  53.1567 276.5363 0000794  60.3002 138.8636 15.99059575  2088
STARLINK-37688          
1 69372U 26123V   26161.25003472 -.00463524  86677-4 -81607-3 0  9999
2 69372  53.1566 276.4909 0000481  72.5140 148.2055 16.01204958  2085
STARLINK-37685          
1 69373U 26123W   26161.25003472 -.00405814  69719-4 -70378-3 0  9999
2 69373  53.1565 276.4827 0000446  59.7419 165.0503 16.01440209  2087
STARLINK-37632          
1 69374U 26123X   26161.25003472 -.01707662  89770-3 -29912-2 0  9992
2 69374  53.1565 276.4726 0000363  89.2368 140.3494 16.01538521  2030
STARLINK-37454          
1 69375U 26123Y   26161.25003472 -.01721196  91831-3 -28939-2 0  9990
2 69375  53.1565 276.4603 0000271 125.1988 110.1660 16.02239243  2176
STARLINK-37485          
1 69376U 26123Z   26161.25003472 -.01658525  85655-3 -27983-2 0  9991
2 69376  53.1565 276.4520 0000259  97.3760 141.9505 16.02171305  2173
STARLINK-37439          
1 69377U 26123AA  26161.25003472 -.00268345  37778-4 -42585-3 0  9998
2 69377  53.1563 276.4385 0000728  69.2151 176.6386 16.02859379  2035
